IRIDIUM 155             
1 43573U 18061E   24097.54060319  .00000339  00000+0  11416-3 0  9998
2 43573  86.4008  31.6891 0002418  84.0575 276.0897 14.34216624298452
IRIDIUM 154             
1 43574U 18061F   24097.52154888  .00000017  00000+0 -90792-6 0  9993
2 43574  86.4014  31.7913 0002025  88.8726 271.2702 14.34208527298501
IRIDIUM 163             
1 43575U 18061G   24097.57228339  .00000029  00000+0  33303-5 0  9998
2 43575  86.4012  31.7103 0002324  86.8320 273.3141 14.34213537298485
IRIDIUM 156             
1 43576U 18061H   24097.54692825  .00000287  00000+0  95295-4 0  9994
2 43576  86.4010  31.7272 0002298  81.4581 278.6875 14.34217555298476
IRIDIUM 164             
1 43577U 18061J   24097.52789774  .00000314  00000+0  10500-3 0  9999
2 43577  86.4011  31.7631 0002028  82.2004 277.9422 14.34217223298514
IRIDIUM 159             
1 43578U 18061K   24097.91479925  .00000107  00000+0  31320-4 0  9991
2 43578  86.4009  31.5551 0002099  87.8021 272.3415 14.34218105298532
IRIDIUM 180             
1 43922U 19002A   24097.91430080  .00000274  00000+0  90888-4 0  9998
2 43922  86.3975 328.4791 0002100  86.5120 273.6316 14.34218858274149
IRIDIUM 176             
1 43923U 19002B   24097.88770495  .00000952  00000+0  14714-3 0  9998
2 43923  86.6104 328.5171 0002425  90.1099 270.0396 14.72242289281353
IRIDIUM 168             
1 43924U 19002C   24097.90795004  .00000296  00000+0  98654-4 0  9992
2 43924  86.3977 328.5364 0002034  86.7241 273.4187 14.34218890274120
IRIDIUM 173             
1 43925U 19002D   24097.89527224  .00000165  00000+0  51876-4 0  9998
2 43925  86.3975 328.4633 0002096  87.3931 272.7505 14.34216861274119
IRIDIUM 169             
1 43926U 19002E   24097.96973502  .00000392  00000+0  12164-3 0  9999
2 43926  86.4282   0.0296 0004376  94.9809 265.1889 14.38598792275034
IRIDIUM 172             
1 43927U 19002F   24097.88893547  .00000283  00000+0  93879-4 0  9993
2 43927  86.3974 328.4716 0002004  86.8264 273.3162 14.34216995274118
IRIDIUM 175             
1 43928U 19002G   24097.94980496  .00000252  00000+0  36055-4 0  9990
2 43928  86.1475 305.6555 0002281  88.4551 271.6927 14.72233675281355
IRIDIUM 171             
1 43929U 19002H   24097.86989720  .00000279  00000+0  92717-4 0  9997
2 43929  86.3984 328.6971 0002122  81.6537 278.4899 14.34218558274102
IRIDIUM 170             
1 43930U 19002J   24097.89393294  .00000946  00000+0  14618-3 0  9991
2 43930  86.6103 328.5192 0002183  92.7239 267.4228 14.72259655281368
IRIDIUM 167             
1 43931U 19002K   24097.93331647  .00000144  00000+0  44228-4 0  9992
2 43931  86.3976 328.4685 0002112  83.6513 276.4924 14.34216057274111
IRIDIUM 181             
1 56726U 23068S   24097.50316683  .00000462  00000+0  13064-3 0  9997
2 56726  86.8692  18.8613 0002325  79.2061 280.9403 14.43560108 46795
IRIDIUM 177             
1 56727U 23068T   24097.97304157  .00001423  00000+0  18374-3 0  9999
2 56727  86.2015 349.1797 0002272  83.6789 276.4691 14.80230439 47847
IRIDIUM 174             
1 56728U 23068U   24097.96764157  .00001412  00000+0  18237-3 0  9995
2 56728  86.2021 349.2802 0002530  88.7140 271.4371 14.80229296 47846
IRIDIUM 178             
1 56729U 23068V   24097.69187333  .00001645  00000+0  21314-3 0  9999
2 56729  86.5836   3.4748 0002560  93.9546 266.1968 14.80223505 47809
IRIDIUM 179             
1 56730U 23068W   24097.48364292  .00001562  00000+0  20216-3 0  9997
2 56730  86.6849   6.7915 0002550  92.4260 267.7253 14.80224172 47775
